JY1SAT (JO-97)          
1 43803U 18099AX  26068.68634132  .00017774  00000+0  60804-3 0  9996
2 43803  97.4249 131.3625 0004723 256.6795 103.3919 15.30302628398390
STARLINK-31405          
1 59248U 24049T   26068.29303731 -.00002456  00000+0 -79781-4 0  9991
2 59248  43.0006 145.9235 0001343 257.1219 102.9483 15.27575036112338
